PRODUCT_SK,PRODID,DESCRIPTION,PRICE1,PRICE2,UNITCOST,PRODTYPEID,TYPEDESCRIPTION,BUID,NAME,ABBREV,SUPPLIERNAME,Addr1,Addr2,City,State,Zip
1,1,Enumerator Polishing Equipment       ,164.97,142.53,130,3,Polishing Equipment    ,A        ,Processing Equipment    ,Equipment,,,,,,
2,1,Enumerator Polishing Equipment       ,164.97,142.53,135.4,3,Polishing Equipment    ,A        ,Processing Equipment    ,Equipment,American General Ventures Inc     ,Attn : Kimberly Yarborough    ,1616 Goggles Drive        ,Sterling            ,KS    ,67579
3,1,Enumerator Polishing Equipment       ,164.97,142.53,135.4,3,Polishing Equipment    ,A        ,Processing Equipment    ,Equipment,American General Ventures Inc     ,Attn : Kimberly Yarborough    ,1616 Goggles Drive        ,Sterling            ,KS    ,67579
4,2,Planetesimal Manufacturing Equip     ,347.28,307,257,2,Manufacturing Equip    ,A        ,Processing Equipment    ,Equipment,,,,,,
5,2,Tailor Jacks                         ,509.78,429.74,399.66,15,Jacks                  ,D        ,Miscellaneous           ,Misc     ,Black Hills Corporation           ,Attn : Edena Gilbert          ,1618 Greenland Street     ,Tallahassee         ,FL    ,32304
6,2,Tailor Jacks                         ,509.78,429.74,399.66,15,Jacks                  ,D        ,Miscellaneous           ,Misc     ,Black Hills Corporation           ,Attn : Edena Gilbert          ,1618 Greenland Street     ,Tallahassee         ,FL    ,32304
7,3,Sortie Covers                        ,248.21,213.21,206.81,13,Covers                 ,D        ,Miscellaneous           ,Misc     ,Fedders Corporation               ,Attn : Virgil Hubert          ,7844 Carelessly Drive     ,Overlook            ,WA    ,98366
8,3,Sortie Covers                        ,248.21,213.21,206.81,13,Covers                 ,D        ,Miscellaneous           ,Misc     ,Fedders Corporation               ,Attn : Virgil Hubert          ,7844 Carelessly Drive     ,Overlook            ,WA    ,98366
9,3,Tailor Jacks                         ,509.78,429.74,399.66,15,Jacks                  ,D        ,Miscellaneous           ,Misc     ,The Product Company W.            ,Attd: Highlander street       ,9845 clearton             ,Fresno              ,CA    ,45678
10,4,Embodying Cleaning Supplies          ,250.91,213.52,207.11,5,Cleaning Supplies      ,B        ,Disposable Supplies     ,Supplies ,Immunex Corporation               ,Attn : Elbert Glad            ,5841 Pervades Drive       ,Fairfax             ,VA    ,22035
11,4,Embodying Cleaning Supplies          ,250.91,213.52,207.11,5,Cleaning Supplies      ,B        ,Disposable Supplies     ,Supplies ,Immunex Corporation               ,Attn : Elbert Glad            ,5841 Pervades Drive       ,Fairfax             ,VA    ,22035
12,4,Miniaturizing Manufacturing Equip    ,456.24,379.59,353,2,Manufacturing Equip    ,A        ,Processing Equipment    ,Equipment,,,,,,
13,5,Automobiles Fillers                  ,283.83,227.63,218.52,12,Fillers                ,D        ,Miscellaneous           ,Misc     ,American General Ventures Inc     ,Attn : Kimberly Yarborough    ,1616 Goggles Drive        ,Sterling            ,KS    ,67579
14,5,Automobiles Fillers                  ,283.83,227.63,218.52,12,Fillers                ,D        ,Miscellaneous           ,Misc     ,American General Ventures Inc     ,Attn : Kimberly Yarborough    ,1616 Goggles Drive        ,Sterling            ,KS    ,67579
15,5,Flake Photo Equipment                ,232.26,204.39,181,1,Photo Equipment        ,A        ,Processing Equipment    ,Equipment,,,,,,
16,6,Denigrating Polishing Equipment      ,565.95,454.46,422,3,Polishing Equipment    ,A        ,Processing Equipment    ,Equipment,,,,,,
17,6,Planetesimal Manufacturing Equip     ,347.28,307,285.51,2,Manufacturing Equip    ,A        ,Processing Equipment    ,Equipment,First Bancshares Inc Mo           ,Attn : Jensine Lease          ,11885 Aural Turnpike      ,Louisville          ,KY    ,40253
18,6,Planetesimal Manufacturing Equip     ,347.28,307,285.51,2,Manufacturing Equip    ,A        ,Processing Equipment    ,Equipment,First Bancshares Inc Mo           ,Attn : Jensine Lease          ,11885 Aural Turnpike      ,Louisville          ,KY    ,40253
19,7,Bandage Manufacturing Equip          ,298,267.01,234,2,Manufacturing Equip    ,A        ,Processing Equipment    ,Equipment,,,,,,
20,7,Commendation Fillers                 ,436.33,380.04,364.84,12,Fillers                ,D        ,Miscellaneous           ,Misc     ,Fedders Corporation               ,Attn : Virgil Hubert          ,7844 Carelessly Drive     ,Overlook            ,WA    ,98366
21,7,Commendation Fillers                 ,436.33,380.04,364.84,12,Fillers                ,D        ,Miscellaneous           ,Misc     ,Fedders Corporation               ,Attn : Virgil Hubert          ,7844 Carelessly Drive     ,Overlook            ,WA    ,98366
22,8,Chalmers Polishing Equipment         ,289.17,242.61,233,3,Polishing Equipment    ,A        ,Processing Equipment    ,Equipment,,,,,,
23,8,Septembers Manufacturing Equip       ,584.33,522.98,517.75,2,Manufacturing Equip    ,A        ,Processing Equipment    ,Equipment,Fedders Corporation               ,Attn : Virgil Hubert          ,7844 Carelessly Drive     ,Overlook            ,WA    ,98366
24,8,Septembers Manufacturing Equip       ,584.33,522.98,517.75,2,Manufacturing Equip    ,A        ,Processing Equipment    ,Equipment,Fedders Corporation               ,Attn : Virgil Hubert          ,7844 Carelessly Drive     ,Overlook            ,WA    ,98366
25,9,Defeated Tray Supplies               ,559.74,476.9,448.29,8,Tray Supplies          ,B        ,Disposable Supplies     ,Supplies ,The Product Company W.            ,Attd: Highlander street       ,9845 clearton             ,Fresno              ,CA    ,45678
26,9,Millimeters Flushing Chemicals       ,295.56,251.82,241.75,10,Flushing Chemicals     ,C        ,Chemicals               ,Chemical ,Afg Industries Inc                ,Attn : Dorothy Polk           ,5377 Cookbook Circle      ,Vero Beach          ,FL    ,32967
27,9,Millimeters Flushing Chemicals       ,295.56,251.82,241.75,10,Flushing Chemicals     ,C        ,Chemicals               ,Chemical ,Afg Industries Inc                ,Attn : Dorothy Polk           ,5377 Cookbook Circle      ,Vero Beach          ,FL    ,32967
28,10,Chartable Photo Equipment            ,410.17,347.41,301,9,Photo Chemicals        ,C        ,Chemicals               ,Chemical ,,,,,,
29,10,Defeated Tray Supplies               ,559.74,476.9,448.29,8,Tray Supplies          ,B        ,Disposable Supplies     ,Supplies ,American General Ventures Inc     ,Attn : Kimberly Yarborough    ,1616 Goggles Drive        ,Sterling            ,KS    ,67579
30,10,Defeated Tray Supplies               ,559.74,476.9,448.29,8,Tray Supplies          ,B        ,Disposable Supplies     ,Supplies ,American General Ventures Inc     ,Attn : Kimberly Yarborough    ,1616 Goggles Drive        ,Sterling            ,KS    ,67579
31,11,Sailors Manufacturing Equip          ,340.48,290.43,247,2,Manufacturing Equip    ,A        ,Processing Equipment    ,Equipment,,,,,,
32,11,Sulkiness Covers                     ,354.3,289.82,272.43,13,Covers                 ,D        ,Miscellaneous           ,Misc     ,Dollar General Corporation        ,Attn : Antoinette Hickey      ,3988 Chanced Avenue       ,S Middleton         ,PA    ,17007
33,11,Sulkiness Covers                     ,354.3,289.82,272.43,13,Covers                 ,D        ,Miscellaneous           ,Misc     ,Dollar General Corporation        ,Attn : Antoinette Hickey      ,3988 Chanced Avenue       ,S Middleton         ,PA    ,17007
34,12,Chromium Photo Equipment             ,565.5,457.49,326,1,Photo Equipment        ,A        ,Processing Equipment    ,Equipment,,,,,,
35,12,Travelings Photo Chemicals           ,274.39,242.01,225.07,122,Photo Chemicals        ,C        ,Chemicals               ,Chemical ,American General Ventures Inc     ,Attn : Kimberly Yarborough    ,1616 Goggles Drive        ,Sterling            ,KS    ,67579
36,12,Travelings Photo Chemicals           ,274.39,242.01,225.07,9,Photo Chemicals        ,C        ,Chemicals               ,Chemical ,American General Ventures Inc     ,Attn : Kimberly Yarborough    ,1616 Goggles Drive        ,Sterling            ,KS    ,67579
37,13,Coward Covers                        ,429.79,348.99,328.05,13,Covers                 ,D        ,Miscellaneous           ,Misc     ,Fedders Corporation               ,Attn : Virgil Hubert          ,7844 Carelessly Drive     ,Overlook            ,WA    ,98366
38,13,Coward Covers                        ,429.79,348.99,328.05,13,Covers                 ,D        ,Miscellaneous           ,Misc     ,The Product Company E.            ,Attn : commons street         ,1723 paratomb Avenue      ,Stratford           ,NY    ,14762
39,13,Coward Covers                        ,429.79,348.99,328.05,13,Covers                 ,D        ,Miscellaneous           ,Misc     ,Fedders Corporation               ,Attn : Virgil Hubert          ,7844 Carelessly Drive     ,Overlook            ,WA    ,98366
40,14,Engle Photo Chemicals                ,429.94,346.1,342.64,9,Photo Chemicals        ,C        ,Chemicals               ,Chemical ,Black Hills Corporation           ,Attn : Edena Gilbert          ,1618 Greenland Street     ,Tallahassee         ,FL    ,32304
41,14,Engle Photo Chemicals                ,429.94,346.1,342.64,9,Photo Chemicals        ,C        ,Chemicals               ,Chemical ,Black Hills Corporation           ,Attn : Edena Gilbert          ,1618 Greenland Street     ,Tallahassee         ,FL    ,32304
42,14,Travelings Photo Chemicals           ,274.39,242.01,225.07,9,Photo Chemicals        ,C        ,Chemicals               ,Chemical ,The Product Company W.            ,Attd: Highlander street       ,9845 clearton             ,Fresno              ,CA    ,45678
43,15,Disposed Fillers                     ,158.84,138.03,132.51,12,Fillers                ,D        ,Miscellaneous           ,Misc     ,Fedders Corporation               ,Attn : Virgil Hubert          ,7844 Carelessly Drive     ,Overlook            ,WA    ,98366
44,15,Disposed Fillers                     ,158.84,138.03,132.51,12,Fillers                ,D        ,Miscellaneous           ,Misc     ,Fedders Corporation               ,Attn : Virgil Hubert          ,7844 Carelessly Drive     ,Overlook            ,WA    ,98366
45,15,Syntax Polishing Equipment           ,226.72,190.9,144,3,Polishing Equipment    ,A        ,Processing Equipment    ,Equipment,,,,,,
46,16,Enhanced Covers                      ,460.96,384.44,361.37,13,Covers                 ,D        ,Miscellaneous           ,Misc     ,Dollar General Corporation        ,Attn : Antoinette Hickey      ,3988 Chanced Avenue       ,S Middleton         ,PA    ,17007
47,16,Enhanced Covers                      ,460.96,384.44,361.37,13,Covers                 ,D        ,Miscellaneous           ,Misc     ,Dollar General Corporation        ,Attn : Antoinette Hickey      ,3988 Chanced Avenue       ,S Middleton         ,PA    ,17007
48,16,Insensitivity Manufacturing Equip    ,200.71,180.44,117,2,Manufacturing Equip    ,A        ,Processing Equipment    ,Equipment,,,,,,
49,17,Optima Cleaning Supplies             ,288.41,255.53,242.75,5,Cleaning Supplies      ,B        ,Disposable Supplies     ,Supplies ,American General Ventures Inc     ,Attn : Kimberly Yarborough    ,1616 Goggles Drive        ,Sterling            ,KS    ,67579
50,17,Optima Cleaning Supplies             ,288.41,255.53,242.75,5,Cleaning Supplies      ,B        ,Disposable Supplies     ,Supplies ,American General Ventures Inc     ,Attn : Kimberly Yarborough    ,1616 Goggles Drive        ,Sterling            ,KS    ,67579
51,17,Sortie Covers                        ,248.21,213.21,206.81,13,Covers                 ,D        ,Miscellaneous           ,Misc     ,The Product Company E.            ,Attn : commons street         ,1723 paratomb Avenue      ,Stratford           ,NY    ,14762
52,18,Allis Polishing Equipment            ,201.77,176.35,120,3,Polishing Equipment    ,A        ,Processing Equipment    ,Equipment,,,,,,
53,18,Miniaturizing Manufacturing Equip    ,456.24,379.59,353.02,2,Manufacturing Equip    ,A        ,Processing Equipment    ,Equipment,American General Ventures Inc     ,Attn : Kimberly Yarborough    ,1616 Goggles Drive        ,Sterling            ,KS    ,67579
54,18,Miniaturizing Manufacturing Equip    ,456.24,379.59,353.02,2,Manufacturing Equip    ,A        ,Processing Equipment    ,Equipment,American General Ventures Inc     ,Attn : Kimberly Yarborough    ,1616 Goggles Drive        ,Sterling            ,KS    ,67579
55,19,Habitually Manufacturing Equip       ,509.3,419.15,360,2,Manufacturing Equip    ,A        ,Processing Equipment    ,Equipment,,,,,,
56,19,Hesitating Jacks                     ,124.46,100.07,96.07,15,Jacks                  ,D        ,Miscellaneous           ,Misc     ,First Bancshares Inc Mo           ,Attn : Jensine Lease          ,11885 Aural Turnpike      ,Louisville          ,KY    ,40253
57,19,Hesitating Jacks                     ,124.46,100.07,96.07,15,Jacks                  ,D        ,Miscellaneous           ,Misc     ,First Bancshares Inc Mo           ,Attn : Jensine Lease          ,11885 Aural Turnpike      ,Louisville          ,KY    ,40253
58,20,Courthouses Manufacturing Equip      ,285.62,243.63,182,2,Manufacturing Equip    ,A        ,Processing Equipment    ,Equipment,,,,,,
59,20,Flake Photo Equipment                ,232.26,204.39,194.17,1,Photo Equipment        ,A        ,Processing Equipment    ,Equipment,Sinclair Broadcast Group Inc      ,Attn : Carla Shelby           ,6037 Ecuadorian Street    ,Clinton             ,MI    ,49236
60,20,Flake Photo Equipment                ,232.26,204.39,194.17,1,Photo Equipment        ,A        ,Processing Equipment    ,Equipment,Sinclair Broadcast Group Inc      ,Attn : Carla Shelby           ,6037 Ecuadorian Street    ,Clinton             ,MI    ,49236
61,21,Denigrating Polishing Equipment      ,565.95,454.46,427.19,3,Polishing Equipment    ,A        ,Processing Equipment    ,Equipment,First Bancshares Inc Mo           ,Attn : Jensine Lease          ,11885 Aural Turnpike      ,Louisville          ,KY    ,40253
62,21,Denigrating Polishing Equipment      ,565.95,454.46,427.19,3,Polishing Equipment    ,A        ,Processing Equipment    ,Equipment,First Bancshares Inc Mo           ,Attn : Jensine Lease          ,11885 Aural Turnpike      ,Louisville          ,KY    ,40253
63,21,Weeks Polishing Equipment            ,198.83,174.18,164,3,Polishing Equipment    ,A        ,Processing Equipment    ,Equipment,,,,,,
64,22,Extinguisher Manufacturing Equip     ,120.39,98.36,65,2,Manufacturing Equip    ,A        ,Processing Equipment    ,Equipment,,,,,,
65,22,Whippers Covers                      ,488.61,410.43,389.91,13,Covers                 ,D        ,Miscellaneous           ,Misc     ,Specialty Teleconstructors Inc    ,Attn : Zylina Cox             ,2161 Chalmers Street      ,Salinas             ,CA    ,93905
66,22,Whippers Covers                      ,488.61,410.43,389.91,13,Covers                 ,D        ,Miscellaneous           ,Misc     ,Specialty Teleconstructors Inc    ,Attn : Zylina Cox             ,2161 Chalmers Street      ,Salinas             ,CA    ,93905
67,23,Decided Tray Supplies                ,233.3,202.27,198.22,8,Tray Supplies          ,B        ,Disposable Supplies     ,Supplies ,Dollar General Corporation        ,Attn : Antoinette Hickey      ,3988 Chanced Avenue       ,S Middleton         ,PA    ,17007
68,23,Decided Tray Supplies                ,233.3,202.27,198.22,8,Tray Supplies          ,B        ,Disposable Supplies     ,Supplies ,Dollar General Corporation        ,Attn : Antoinette Hickey      ,3988 Chanced Avenue       ,S Middleton         ,PA    ,17007
69,23,Occlusion Manufacturing Equip        ,199.88,177.29,72,2,Manufacturing Equip    ,A        ,Processing Equipment    ,Equipment,,,,,,
70,24,Bandage Manufacturing Equip          ,298,267.01,253.66,2,Manufacturing Equip    ,A        ,Processing Equipment    ,Equipment,Sinclair Broadcast Group Inc      ,Attn : Carla Shelby           ,6037 Ecuadorian Street    ,Clinton             ,MI    ,49236
71,24,Bandage Manufacturing Equip          ,298,267.01,253.66,2,Manufacturing Equip    ,A        ,Processing Equipment    ,Equipment,Sinclair Broadcast Group Inc      ,Attn : Carla Shelby           ,6037 Ecuadorian Street    ,Clinton             ,MI    ,49236
72,24,Loaves Polishing Equipment           ,425.59,361.33,265,3,Polishing Equipment    ,A        ,Processing Equipment    ,Equipment,,,,,,
73,25,Automobiles Fillers                  ,283.83,227.63,218.52,12,Fillers                ,D        ,Miscellaneous           ,Misc     ,The Product Company E.            ,Attn : commons street         ,1723 paratomb Avenue      ,Stratford           ,NY    ,14762
74,25,Chalmers Polishing Equipment         ,289.17,242.61,223.2,3,Polishing Equipment    ,A        ,Processing Equipment    ,Equipment,American General Ventures Inc     ,Attn : Kimberly Yarborough    ,1616 Goggles Drive        ,Sterling            ,KS    ,67579
75,25,Chalmers Polishing Equipment         ,289.17,242.61,223.2,3,Polishing Equipment    ,A        ,Processing Equipment    ,Equipment,American General Ventures Inc     ,Attn : Kimberly Yarborough    ,1616 Goggles Drive        ,Sterling            ,KS    ,67579
76,26,Simulations Photo Equipment          ,318.38,255.66,196,1,Photo Equipment        ,A        ,Processing Equipment    ,Equipment,,,,,,
77,26,Subclasses Polishing Equipment       ,282.51,239,236.61,3,Polishing Equipment    ,A        ,Processing Equipment    ,Equipment,Saurer Gruppe Holding Ag          ,Attn : Pearce Valdez          ,3727 Elms Drive           ,South Saint Paul    ,MN    ,55077
78,26,Subclasses Polishing Equipment       ,282.51,239,236.61,3,Polishing Equipment    ,A        ,Processing Equipment    ,Equipment,Saurer Gruppe Holding Ag          ,Attn : Pearce Valdez          ,3727 Elms Drive           ,South Saint Paul    ,MN    ,55077
79,27,Pinnings Plastic Supplies            ,337.17,302.44,287.32,7,Plastic Supplies       ,B        ,Disposable Supplies     ,Supplies ,Saurer Gruppe Holding Ag          ,Attn : Pearce Valdez          ,3727 Elms Drive           ,South Saint Paul    ,MN    ,55077
80,27,Pinnings Plastic Supplies            ,337.17,302.44,287.32,7,Plastic Supplies       ,B        ,Disposable Supplies     ,Supplies ,Saurer Gruppe Holding Ag          ,Attn : Pearce Valdez          ,3727 Elms Drive           ,South Saint Paul    ,MN    ,55077
81,27,Vastest Photo Equipment              ,498.08,442.3,321,1,Photo Equipment        ,A        ,Processing Equipment    ,Equipment,,,,,,
82,28,Palm Polishing Equipment             ,122.39,105.38,91,3,Polishing Equipment    ,A        ,Processing Equipment    ,Equipment,,,,,,
83,28,Wonderingly Covers                   ,547.21,467.32,453.3,13,Covers                 ,D        ,Miscellaneous           ,Misc     ,Afg Industries Inc                ,Attn : Dorothy Polk           ,5377 Cookbook Circle      ,Vero Beach          ,FL    ,32967
84,28,Wonderingly Covers                   ,547.21,467.32,453.3,13,Covers                 ,D        ,Miscellaneous           ,Misc     ,Afg Industries Inc                ,Attn : Dorothy Polk           ,5377 Cookbook Circle      ,Vero Beach          ,FL    ,32967
85,29,Bluest Fillers                       ,507.35,428.2,398.23,12,Fillers                ,D        ,Miscellaneous           ,Misc     ,Black Hills Corporation           ,Attn : Edena Gilbert          ,1618 Greenland Street     ,Tallahassee         ,FL    ,32304
86,29,Bluest Fillers                       ,507.35,428.2,398.23,12,Fillers                ,D        ,Miscellaneous           ,Misc     ,Black Hills Corporation           ,Attn : Edena Gilbert          ,1618 Greenland Street     ,Tallahassee         ,FL    ,32304
87,29,Millimeters Flushing Chemicals       ,295.56,251.82,241.75,10,Flushing Chemicals     ,C        ,Chemicals               ,Chemical ,The Product Company E.            ,Attn : commons street         ,1723 paratomb Avenue      ,Stratford           ,NY    ,14762
88,30,Detectives Jacks                     ,283.32,248.47,236.05,15,Jacks                  ,D        ,Miscellaneous           ,Misc     ,Specialty Teleconstructors Inc    ,Attn : Zylina Cox             ,2161 Chalmers Street      ,Salinas             ,CA    ,93905
89,30,Detectives Jacks                     ,283.32,248.47,236.05,15,Jacks                  ,D        ,Miscellaneous           ,Misc     ,Specialty Teleconstructors Inc    ,Attn : Zylina Cox             ,2161 Chalmers Street      ,Salinas             ,CA    ,93905
90,30,Suing Manufacturing Equip            ,482.16,426.71,329,2,Manufacturing Equip    ,A        ,Processing Equipment    ,Equipment,,,,,,
91,31,Bellowing Polishing Equipment        ,502.57,451.31,400,3,Polishing Equipment    ,A        ,Processing Equipment    ,Equipment,,,,,,
92,31,Simplifier Tray Supplies             ,408.81,349.12,328.17,8,Tray Supplies          ,B        ,Disposable Supplies     ,Supplies ,Saurer Gruppe Holding Ag          ,Attn : Pearce Valdez          ,3727 Elms Drive           ,South Saint Paul    ,MN    ,55077
93,31,Simplifier Tray Supplies             ,408.81,349.12,328.17,8,Tray Supplies          ,B        ,Disposable Supplies     ,Supplies ,Saurer Gruppe Holding Ag          ,Attn : Pearce Valdez          ,3727 Elms Drive           ,South Saint Paul    ,MN    ,55077
94,32,Chartable Photo Equipment            ,410.17,347.41,312.67,1,Photo Equipment        ,A        ,Processing Equipment    ,Equipment,Black Hills Corporation           ,Attn : Edena Gilbert          ,1618 Greenland Street     ,Tallahassee         ,FL    ,32304
95,32,Chartable Photo Equipment            ,410.17,347.41,312.67,1,Photo Equipment        ,A        ,Processing Equipment    ,Equipment,Black Hills Corporation           ,Attn : Edena Gilbert          ,1618 Greenland Street     ,Tallahassee         ,FL    ,32304
96,32,Embodying Cleaning Supplies          ,250.91,213.52,207.11,5,Cleaning Supplies      ,B        ,Disposable Supplies     ,Supplies ,The Product Company W.            ,Attd: Highlander street       ,9845 clearton             ,Fresno              ,CA    ,45678
97,33,Consumable Tray Supplies             ,395.7,347.42,337,8,Tray Supplies          ,B        ,Disposable Supplies     ,Supplies ,First Bancshares Inc Mo           ,Attn : Jensine Lease          ,11885 Aural Turnpike      ,Louisville          ,KY    ,40253
98,33,Consumable Tray Supplies             ,395.7,347.42,337,8,Tray Supplies          ,B        ,Disposable Supplies     ,Supplies ,First Bancshares Inc Mo           ,Attn : Jensine Lease          ,11885 Aural Turnpike      ,Louisville          ,KY    ,40253
99,33,Pervasively Manufacturing Equip      ,374.14,334.86,303,2,Manufacturing Equip    ,A        ,Processing Equipment    ,Equipment,,,,,,
100,34,Sailors Manufacturing Equip          ,340.48,290.43,278.81,2,Manufacturing Equip    ,A        ,Processing Equipment    ,Equipment,Dollar General Corporation        ,Attn : Antoinette Hickey      ,3988 Chanced Avenue       ,S Middleton         ,PA    ,17007
101,34,Sailors Manufacturing Equip          ,340.48,290.43,278.81,2,Manufacturing Equip    ,A        ,Processing Equipment    ,Equipment,Dollar General Corporation        ,Attn : Antoinette Hickey      ,3988 Chanced Avenue       ,S Middleton         ,PA    ,17007
102,34,Septembers Manufacturing Equip       ,584.33,522.98,217,2,Manufacturing Equip    ,A        ,Processing Equipment    ,Equipment,,,,,,
103,35,Birthdays Manufacturing Equip        ,196.56,173.17,118,2,Manufacturing Equip    ,A        ,Processing Equipment    ,Equipment,,,,,,
104,35,Chromium Photo Equipment             ,565.5,457.49,425.47,1,Photo Equipment        ,A        ,Processing Equipment    ,Equipment,Fedders Corporation               ,Attn : Virgil Hubert          ,7844 Carelessly Drive     ,Overlook            ,WA    ,98366
105,35,Chromium Photo Equipment             ,565.5,457.49,425.47,1,Photo Equipment        ,A        ,Processing Equipment    ,Equipment,Fedders Corporation               ,Attn : Virgil Hubert          ,7844 Carelessly Drive     ,Overlook            ,WA    ,98366
106,36,Bomber Photo Equipment               ,461.34,400.44,380.42,1,Photo Equipment        ,A        ,Processing Equipment    ,Equipment,American General Ventures Inc     ,Attn : Kimberly Yarborough    ,1616 Goggles Drive        ,Sterling            ,KS    ,67579
107,36,Bomber Photo Equipment               ,461.34,400.44,380.42,1,Photo Equipment        ,A        ,Processing Equipment    ,Equipment,American General Ventures Inc     ,Attn : Kimberly Yarborough    ,1616 Goggles Drive        ,Sterling            ,KS    ,67579
108,36,Duplicator Polishing Equipment       ,544.28,465.36,409,3,Polishing Equipment    ,A        ,Processing Equipment    ,Equipment,,,,,,
109,37,Concentrators Polishing Equipment    ,584.57,524.94,482.94,3,Polishing Equipment    ,A        ,Processing Equipment    ,Equipment,Immunex Corporation               ,Attn : Elbert Glad            ,5841 Pervades Drive       ,Fairfax             ,VA    ,22035
110,37,Concentrators Polishing Equipment    ,584.57,524.94,482.94,3,Polishing Equipment    ,A        ,Processing Equipment    ,Equipment,Immunex Corporation               ,Attn : Elbert Glad            ,5841 Pervades Drive       ,Fairfax             ,VA    ,22035
111,37,Escape Manufacturing Equip           ,584.38,523.6,463,2,Manufacturing Equip    ,A        ,Processing Equipment    ,Equipment,,,,,,
112,38,Commendation Fillers                 ,436.33,380.04,364.84,12,Fillers                ,D        ,Miscellaneous           ,Misc     ,The Product Company W.            ,Attd: Highlander street       ,9845 clearton             ,Fresno              ,CA    ,45678
113,38,Syntax Polishing Equipment           ,226.72,190.9,177.54,3,Polishing Equipment    ,A        ,Processing Equipment    ,Equipment,Dollar General Corporation        ,Attn : Antoinette Hickey      ,3988 Chanced Avenue       ,S Middleton         ,PA    ,17007
114,38,Syntax Polishing Equipment           ,226.72,190.9,177.54,3,Polishing Equipment    ,A        ,Processing Equipment    ,Equipment,Dollar General Corporation        ,Attn : Antoinette Hickey      ,3988 Chanced Avenue       ,S Middleton         ,PA    ,17007
115,39,Disallow Manufacturing Equip         ,165.24,145.91,100,2,Manufacturing Equip    ,A        ,Processing Equipment    ,Equipment,,,,,,
116,39,Overlays Plastic Supplies            ,301.08,254.41,241.69,7,Plastic Supplies       ,B        ,Disposable Supplies     ,Supplies ,Afg Industries Inc                ,Attn : Dorothy Polk           ,5377 Cookbook Circle      ,Vero Beach          ,FL    ,32967
117,39,Overlays Plastic Supplies            ,301.08,254.41,241.69,7,Plastic Supplies       ,B        ,Disposable Supplies     ,Supplies ,Afg Industries Inc                ,Attn : Dorothy Polk           ,5377 Cookbook Circle      ,Vero Beach          ,FL    ,32967
118,40,Insensitivity Manufacturing Equip    ,200.71,180.44,169.61,2,Manufacturing Equip    ,A        ,Processing Equipment    ,Equipment,First Bancshares Inc Mo           ,Attn : Jensine Lease          ,11885 Aural Turnpike      ,Louisville          ,KY    ,40253
119,40,Insensitivity Manufacturing Equip    ,200.71,180.44,169.61,2,Manufacturing Equip    ,A        ,Processing Equipment    ,Equipment,First Bancshares Inc Mo           ,Attn : Jensine Lease          ,11885 Aural Turnpike      ,Louisville          ,KY    ,40253
120,40,Subclasses Polishing Equipment       ,282.51,239,216,3,Polishing Equipment    ,A        ,Processing Equipment    ,Equipment,,,,,,
121,41,Consideration Tray Supplies          ,172.56,146.85,139.51,8,Tray Supplies          ,B        ,Disposable Supplies     ,Supplies ,American General Ventures Inc     ,Attn : Kimberly Yarborough    ,1616 Goggles Drive        ,Sterling            ,KS    ,67579
122,41,Consideration Tray Supplies          ,172.56,146.85,139.51,8,Tray Supplies          ,B        ,Disposable Supplies     ,Supplies ,American General Ventures Inc     ,Attn : Kimberly Yarborough    ,1616 Goggles Drive        ,Sterling            ,KS    ,67579
123,41,Sulkiness Covers                     ,354.3,289.82,272.43,13,Covers                 ,D        ,Miscellaneous           ,Misc     ,The Product Company E.            ,Attn : commons street         ,1723 paratomb Avenue      ,Stratford           ,NY    ,14762
124,42,Carelessly Freezing Chemicals        ,559.67,467.88,425.77,11,Freezing Chemicals     ,C        ,Chemicals               ,Chemical ,Dollar General Corporation        ,Attn : Antoinette Hickey      ,3988 Chanced Avenue       ,S Middleton         ,PA    ,17007
125,42,Carelessly Freezing Chemicals        ,559.67,467.88,425.77,11,Freezing Chemicals     ,C        ,Chemicals               ,Chemical ,Dollar General Corporation        ,Attn : Antoinette Hickey      ,3988 Chanced Avenue       ,S Middleton         ,PA    ,17007
126,42,Concentrators Polishing Equipment    ,584.57,524.94,482,3,Polishing Equipment    ,A        ,Processing Equipment    ,Equipment,,,,,,
127,43,Blazed Covers                        ,495,416.79,404.29,13,Covers                 ,D        ,Miscellaneous           ,Misc     ,Afg Industries Inc                ,Attn : Dorothy Polk           ,5377 Cookbook Circle      ,Vero Beach          ,FL    ,32967
128,43,Blazed Covers                        ,495,416.79,404.29,13,Covers                 ,D        ,Miscellaneous           ,Misc     ,Afg Industries Inc                ,Attn : Dorothy Polk           ,5377 Cookbook Circle      ,Vero Beach          ,FL    ,32967
129,43,Bomber Photo Equipment               ,461.34,400.44,351,1,Photo Equipment        ,A        ,Processing Equipment    ,Equipment,,,,,,
130,44,Birthdays Manufacturing Equip        ,196.56,173.17,161.05,2,Manufacturing Equip    ,A        ,Processing Equipment    ,Equipment,First Bancshares Inc Mo           ,Attn : Jensine Lease          ,11885 Aural Turnpike      ,Louisville          ,KY    ,40253
131,44,Birthdays Manufacturing Equip        ,196.56,173.17,161.05,2,Manufacturing Equip    ,A        ,Processing Equipment    ,Equipment,First Bancshares Inc Mo           ,Attn : Jensine Lease          ,11885 Aural Turnpike      ,Louisville          ,KY    ,40253
132,45,Slacking Jacks                       ,495.04,399.99,387.99,15,Jacks                  ,D        ,Miscellaneous           ,Misc     ,Dollar General Corporation        ,Attn : Antoinette Hickey      ,3988 Chanced Avenue       ,S Middleton         ,PA    ,17007
133,45,Slacking Jacks                       ,495.04,399.99,387.99,15,Jacks                  ,D        ,Miscellaneous           ,Misc     ,Dollar General Corporation        ,Attn : Antoinette Hickey      ,3988 Chanced Avenue       ,S Middleton         ,PA    ,17007
134,46,Distantly Paper Supplies             ,518.49,436.05,418.61,6,Paper Supplies         ,B        ,Disposable Supplies     ,Supplies ,First Bancshares Inc Mo           ,Attn : Jensine Lease          ,11885 Aural Turnpike      ,Louisville          ,KY    ,40253
135,46,Distantly Paper Supplies             ,518.49,436.05,418.61,6,Paper Supplies         ,B        ,Disposable Supplies     ,Supplies ,First Bancshares Inc Mo           ,Attn : Jensine Lease          ,11885 Aural Turnpike      ,Louisville          ,KY    ,40253
136,47,Significants Freezing Chemicals      ,141.55,113.24,104.18,11,Freezing Chemicals     ,C        ,Chemicals               ,Chemical ,Dollar General Corporation        ,Attn : Antoinette Hickey      ,3988 Chanced Avenue       ,S Middleton         ,PA    ,17007
137,47,Significants Freezing Chemicals      ,141.55,113.24,104.18,11,Freezing Chemicals     ,C        ,Chemicals               ,Chemical ,Dollar General Corporation        ,Attn : Antoinette Hickey      ,3988 Chanced Avenue       ,S Middleton         ,PA    ,17007
138,48,Patriarchal Cleaning Supplies        ,351.54,284.75,264.82,5,Cleaning Supplies      ,B        ,Disposable Supplies     ,Supplies ,Sinclair Broadcast Group Inc      ,Attn : Carla Shelby           ,6037 Ecuadorian Street    ,Clinton             ,MI    ,49236
139,48,Patriarchal Cleaning Supplies        ,351.54,284.75,264.82,5,Cleaning Supplies      ,B        ,Disposable Supplies     ,Supplies ,Sinclair Broadcast Group Inc      ,Attn : Carla Shelby           ,6037 Ecuadorian Street    ,Clinton             ,MI    ,49236
140,49,Visage Flushing Chemicals            ,567.75,507.57,466.96,10,Flushing Chemicals     ,C        ,Chemicals               ,Chemical ,Afg Industries Inc                ,Attn : Dorothy Polk           ,5377 Cookbook Circle      ,Vero Beach          ,FL    ,32967
141,49,Visage Flushing Chemicals            ,567.75,507.57,466.96,10,Flushing Chemicals     ,C        ,Chemicals               ,Chemical ,Afg Industries Inc                ,Attn : Dorothy Polk           ,5377 Cookbook Circle      ,Vero Beach          ,FL    ,32967
142,50,Restarts Paper Supplies              ,524.38,448.34,425.92,6,Paper Supplies         ,B        ,Disposable Supplies     ,Supplies ,Specialty Teleconstructors Inc    ,Attn : Zylina Cox             ,2161 Chalmers Street      ,Salinas             ,CA    ,93905
143,50,Restarts Paper Supplies              ,524.38,448.34,425.92,6,Paper Supplies         ,B        ,Disposable Supplies     ,Supplies ,Specialty Teleconstructors Inc    ,Attn : Zylina Cox             ,2161 Chalmers Street      ,Salinas             ,CA    ,93905
144,51,Reflection Lifts                     ,497.85,447.57,438.62,14,Lifts                  ,D        ,Miscellaneous           ,Misc     ,Fedders Corporation               ,Attn : Virgil Hubert          ,7844 Carelessly Drive     ,Overlook            ,WA    ,98366
145,51,Reflection Lifts                     ,497.85,447.57,438.62,14,Lifts                  ,D        ,Miscellaneous           ,Misc     ,Fedders Corporation               ,Attn : Virgil Hubert          ,7844 Carelessly Drive     ,Overlook            ,WA    ,98366
146,52,Identical Freezing Chemicals         ,578.07,465.92,447.28,11,Freezing Chemicals     ,C        ,Chemicals               ,Chemical ,Sinclair Broadcast Group Inc      ,Attn : Carla Shelby           ,6037 Ecuadorian Street    ,Clinton             ,MI    ,49236
147,52,Identical Freezing Chemicals         ,578.07,465.92,447.28,11,Freezing Chemicals     ,C        ,Chemicals               ,Chemical ,Sinclair Broadcast Group Inc      ,Attn : Carla Shelby           ,6037 Ecuadorian Street    ,Clinton             ,MI    ,49236
148,53,Ruffle Freezing Chemicals            ,476.38,394.92,379.12,11,Freezing Chemicals     ,C        ,Chemicals               ,Chemical ,Immunex Corporation               ,Attn : Elbert Glad            ,5841 Pervades Drive       ,Fairfax             ,VA    ,22035
149,53,Ruffle Freezing Chemicals            ,476.38,394.92,379.12,11,Freezing Chemicals     ,C        ,Chemicals               ,Chemical ,Immunex Corporation               ,Attn : Elbert Glad            ,5841 Pervades Drive       ,Fairfax             ,VA    ,22035
150,54,Honeymoon Photo Chemicals            ,326.13,292.21,271.76,9,Photo Chemicals        ,C        ,Chemicals               ,Chemical ,Afg Industries Inc                ,Attn : Dorothy Polk           ,5377 Cookbook Circle      ,Vero Beach          ,FL    ,32967
151,54,Honeymoon Photo Chemicals            ,326.13,292.21,271.76,9,Photo Chemicals        ,C        ,Chemicals               ,Chemical ,Afg Industries Inc                ,Attn : Dorothy Polk           ,5377 Cookbook Circle      ,Vero Beach          ,FL    ,32967
152,55,Bumblers Plastic Supplies            ,545.31,466.24,447.59,7,Plastic Supplies       ,B        ,Disposable Supplies     ,Supplies ,First Bancshares Inc Mo           ,Attn : Jensine Lease          ,11885 Aural Turnpike      ,Louisville          ,KY    ,40253
153,55,Bumblers Plastic Supplies            ,545.31,466.24,447.59,7,Plastic Supplies       ,B        ,Disposable Supplies     ,Supplies ,First Bancshares Inc Mo           ,Attn : Jensine Lease          ,11885 Aural Turnpike      ,Louisville          ,KY    ,40253
154,56,Allis Polishing Equipment            ,201.77,176.35,160.48,3,Polishing Equipment    ,A        ,Processing Equipment    ,Equipment,American General Ventures Inc     ,Attn : Kimberly Yarborough    ,1616 Goggles Drive        ,Sterling            ,KS    ,67579
155,56,Allis Polishing Equipment            ,201.77,176.35,160.48,3,Polishing Equipment    ,A        ,Processing Equipment    ,Equipment,American General Ventures Inc     ,Attn : Kimberly Yarborough    ,1616 Goggles Drive        ,Sterling            ,KS    ,67579
156,57,South Tray Supplies                  ,241.3,205.1,203.05,8,Tray Supplies          ,B        ,Disposable Supplies     ,Supplies ,Sinclair Broadcast Group Inc      ,Attn : Carla Shelby           ,6037 Ecuadorian Street    ,Clinton             ,MI    ,49236
157,57,South Tray Supplies                  ,241.3,205.1,203.05,8,Tray Supplies          ,B        ,Disposable Supplies     ,Supplies ,Sinclair Broadcast Group Inc      ,Attn : Carla Shelby           ,6037 Ecuadorian Street    ,Clinton             ,MI    ,49236
158,58,Characterization Plastic Supplies    ,231.68,185.58,168.88,7,Plastic Supplies       ,B        ,Disposable Supplies     ,Supplies ,Fedders Corporation               ,Attn : Virgil Hubert          ,7844 Carelessly Drive     ,Overlook            ,WA    ,98366
159,58,Characterization Plastic Supplies    ,231.68,185.58,168.88,7,Plastic Supplies       ,B        ,Disposable Supplies     ,Supplies ,Fedders Corporation               ,Attn : Virgil Hubert          ,7844 Carelessly Drive     ,Overlook            ,WA    ,98366
160,59,Tonnage Plastic Supplies             ,368.75,315.65,309.34,7,Plastic Supplies       ,B        ,Disposable Supplies     ,Supplies ,Afg Industries Inc                ,Attn : Dorothy Polk           ,5377 Cookbook Circle      ,Vero Beach          ,FL    ,32967
161,59,Tonnage Plastic Supplies             ,368.75,315.65,309.34,7,Plastic Supplies       ,B        ,Disposable Supplies     ,Supplies ,Afg Industries Inc                ,Attn : Dorothy Polk           ,5377 Cookbook Circle      ,Vero Beach          ,FL    ,32967
162,60,Habitually Manufacturing Equip       ,509.3,419.15,394,2,Manufacturing Equip    ,A        ,Processing Equipment    ,Equipment,Black Hills Corporation           ,Attn : Edena Gilbert          ,1618 Greenland Street     ,Tallahassee         ,FL    ,32304
163,60,Habitually Manufacturing Equip       ,509.3,419.15,394,2,Manufacturing Equip    ,A        ,Processing Equipment    ,Equipment,Black Hills Corporation           ,Attn : Edena Gilbert          ,1618 Greenland Street     ,Tallahassee         ,FL    ,32304
164,61,Courthouses Manufacturing Equip      ,285.62,243.63,231.45,2,Manufacturing Equip    ,A        ,Processing Equipment    ,Equipment,First Bancshares Inc Mo           ,Attn : Jensine Lease          ,11885 Aural Turnpike      ,Louisville          ,KY    ,40253
165,61,Courthouses Manufacturing Equip      ,285.62,243.63,231.45,2,Manufacturing Equip    ,A        ,Processing Equipment    ,Equipment,First Bancshares Inc Mo           ,Attn : Jensine Lease          ,11885 Aural Turnpike      ,Louisville          ,KY    ,40253
166,62,Substances Flushing Chemicals        ,507.34,409.93,397.63,10,Flushing Chemicals     ,C        ,Chemicals               ,Chemical ,Black Hills Corporation           ,Attn : Edena Gilbert          ,1618 Greenland Street     ,Tallahassee         ,FL    ,32304
167,62,Substances Flushing Chemicals        ,507.34,409.93,397.63,10,Flushing Chemicals     ,C        ,Chemicals               ,Chemical ,Black Hills Corporation           ,Attn : Edena Gilbert          ,1618 Greenland Street     ,Tallahassee         ,FL    ,32304
168,63,Weeks Polishing Equipment            ,198.83,174.18,168.95,3,Polishing Equipment    ,A        ,Processing Equipment    ,Equipment,Afg Industries Inc                ,Attn : Dorothy Polk           ,5377 Cookbook Circle      ,Vero Beach          ,FL    ,32967
169,63,Weeks Polishing Equipment            ,198.83,174.18,168.95,3,Polishing Equipment    ,A        ,Processing Equipment    ,Equipment,Afg Industries Inc                ,Attn : Dorothy Polk           ,5377 Cookbook Circle      ,Vero Beach          ,FL    ,32967
170,64,Berwick Fillers                      ,583.85,487.51,463.13,12,Fillers                ,D        ,Miscellaneous           ,Misc     ,Dollar General Corporation        ,Attn : Antoinette Hickey      ,3988 Chanced Avenue       ,S Middleton         ,PA    ,17007
171,64,Berwick Fillers                      ,583.85,487.51,463.13,12,Fillers                ,D        ,Miscellaneous           ,Misc     ,Dollar General Corporation        ,Attn : Antoinette Hickey      ,3988 Chanced Avenue       ,S Middleton         ,PA    ,17007
172,65,Extinguisher Manufacturing Equip     ,120.39,98.36,90.49,2,Manufacturing Equip    ,A        ,Processing Equipment    ,Equipment,Sinclair Broadcast Group Inc      ,Attn : Carla Shelby           ,6037 Ecuadorian Street    ,Clinton             ,MI    ,49236
173,65,Extinguisher Manufacturing Equip     ,120.39,98.36,90.49,2,Manufacturing Equip    ,A        ,Processing Equipment    ,Equipment,Sinclair Broadcast Group Inc      ,Attn : Carla Shelby           ,6037 Ecuadorian Street    ,Clinton             ,MI    ,49236
174,66,Exemplar Freezing Chemicals          ,198.4,160.9,152.85,11,Freezing Chemicals     ,C        ,Chemicals               ,Chemical ,Fedders Corporation               ,Attn : Virgil Hubert          ,7844 Carelessly Drive     ,Overlook            ,WA    ,98366
175,66,Exemplar Freezing Chemicals          ,198.4,160.9,152.85,11,Freezing Chemicals     ,C        ,Chemicals               ,Chemical ,Fedders Corporation               ,Attn : Virgil Hubert          ,7844 Carelessly Drive     ,Overlook            ,WA    ,98366
176,67,Occlusion Manufacturing Equip        ,199.88,177.29,164.88,2,Manufacturing Equip    ,A        ,Processing Equipment    ,Equipment,Afg Industries Inc                ,Attn : Dorothy Polk           ,5377 Cookbook Circle      ,Vero Beach          ,FL    ,32967
177,67,Occlusion Manufacturing Equip        ,199.88,177.29,164.88,2,Manufacturing Equip    ,A        ,Processing Equipment    ,Equipment,Afg Industries Inc                ,Attn : Dorothy Polk           ,5377 Cookbook Circle      ,Vero Beach          ,FL    ,32967
178,68,Loaves Polishing Equipment           ,425.59,361.33,354.1,3,Polishing Equipment    ,A        ,Processing Equipment    ,Equipment,Afg Industries Inc                ,Attn : Dorothy Polk           ,5377 Cookbook Circle      ,Vero Beach          ,FL    ,32967
179,68,Loaves Polishing Equipment           ,425.59,361.33,354.1,3,Polishing Equipment    ,A        ,Processing Equipment    ,Equipment,Afg Industries Inc                ,Attn : Dorothy Polk           ,5377 Cookbook Circle      ,Vero Beach          ,FL    ,32967
180,69,Hits Tray Supplies                   ,439.53,359.1,341.14,8,Tray Supplies          ,B        ,Disposable Supplies     ,Supplies ,Black Hills Corporation           ,Attn : Edena Gilbert          ,1618 Greenland Street     ,Tallahassee         ,FL    ,32304
181,69,Hits Tray Supplies                   ,439.53,359.1,341.14,8,Tray Supplies          ,B        ,Disposable Supplies     ,Supplies ,Black Hills Corporation           ,Attn : Edena Gilbert          ,1618 Greenland Street     ,Tallahassee         ,FL    ,32304
182,70,Escape Manufacturing Equip           ,584.38,523.6,507.89,2,Manufacturing Equip    ,A        ,Processing Equipment    ,Equipment,Black Hills Corporation           ,Attn : Edena Gilbert          ,1618 Greenland Street     ,Tallahassee         ,FL    ,32304
183,70,Escape Manufacturing Equip           ,584.38,523.6,507.89,2,Manufacturing Equip    ,A        ,Processing Equipment    ,Equipment,Black Hills Corporation           ,Attn : Edena Gilbert          ,1618 Greenland Street     ,Tallahassee         ,FL    ,32304
184,71,Simulations Photo Equipment          ,318.38,255.66,245.43,1,Photo Equipment        ,A        ,Processing Equipment    ,Equipment,Black Hills Corporation           ,Attn : Edena Gilbert          ,1618 Greenland Street     ,Tallahassee         ,FL    ,32304
185,71,Simulations Photo Equipment          ,318.38,255.66,245.43,1,Photo Equipment        ,A        ,Processing Equipment    ,Equipment,Black Hills Corporation           ,Attn : Edena Gilbert          ,1618 Greenland Street     ,Tallahassee         ,FL    ,32304
186,72,Anthem Tray Supplies                 ,134.92,112.39,109.02,8,Tray Supplies          ,B        ,Disposable Supplies     ,Supplies ,Fedders Corporation               ,Attn : Virgil Hubert          ,7844 Carelessly Drive     ,Overlook            ,WA    ,98366
187,72,Anthem Tray Supplies                 ,134.92,112.39,109.02,8,Tray Supplies          ,B        ,Disposable Supplies     ,Supplies ,Fedders Corporation               ,Attn : Virgil Hubert          ,7844 Carelessly Drive     ,Overlook            ,WA    ,98366
188,73,Cosgrove Jacks                       ,298.87,267.79,254.4,15,Jacks                  ,D        ,Miscellaneous           ,Misc     ,Afg Industries Inc                ,Attn : Dorothy Polk           ,5377 Cookbook Circle      ,Vero Beach          ,FL    ,32967
189,73,Cosgrove Jacks                       ,298.87,267.79,254.4,15,Jacks                  ,D        ,Miscellaneous           ,Misc     ,Afg Industries Inc                ,Attn : Dorothy Polk           ,5377 Cookbook Circle      ,Vero Beach          ,FL    ,32967
190,74,Flanker Fillers                      ,271.44,236.15,219.62,12,Fillers                ,D        ,Miscellaneous           ,Misc     ,Dollar General Corporation        ,Attn : Antoinette Hickey      ,3988 Chanced Avenue       ,S Middleton         ,PA    ,17007
191,74,Flanker Fillers                      ,271.44,236.15,219.62,12,Fillers                ,D        ,Miscellaneous           ,Misc     ,Dollar General Corporation        ,Attn : Antoinette Hickey      ,3988 Chanced Avenue       ,S Middleton         ,PA    ,17007
192,75,Deferrable Freezing Chemicals        ,145.03,124.44,113.24,11,Freezing Chemicals     ,C        ,Chemicals               ,Chemical ,Sinclair Broadcast Group Inc      ,Attn : Carla Shelby           ,6037 Ecuadorian Street    ,Clinton             ,MI    ,49236
193,75,Deferrable Freezing Chemicals        ,145.03,124.44,113.24,11,Freezing Chemicals     ,C        ,Chemicals               ,Chemical ,Sinclair Broadcast Group Inc      ,Attn : Carla Shelby           ,6037 Ecuadorian Street    ,Clinton             ,MI    ,49236
194,76,Scrounge Jacks                       ,301.58,251.22,248.71,15,Jacks                  ,D        ,Miscellaneous           ,Misc     ,Dollar General Corporation        ,Attn : Antoinette Hickey      ,3988 Chanced Avenue       ,S Middleton         ,PA    ,17007
195,76,Scrounge Jacks                       ,301.58,251.22,248.71,15,Jacks                  ,D        ,Miscellaneous           ,Misc     ,Dollar General Corporation        ,Attn : Antoinette Hickey      ,3988 Chanced Avenue       ,S Middleton         ,PA    ,17007
196,77,Vastest Photo Equipment              ,498.08,442.3,420.19,1,Photo Equipment        ,A        ,Processing Equipment    ,Equipment,Sinclair Broadcast Group Inc      ,Attn : Carla Shelby           ,6037 Ecuadorian Street    ,Clinton             ,MI    ,49236
197,77,Vastest Photo Equipment              ,498.08,442.3,420.19,1,Photo Equipment        ,A        ,Processing Equipment    ,Equipment,Sinclair Broadcast Group Inc      ,Attn : Carla Shelby           ,6037 Ecuadorian Street    ,Clinton             ,MI    ,49236
198,78,Measured Photo Chemicals             ,318.06,270.67,254.43,9,Photo Chemicals        ,C        ,Chemicals               ,Chemical ,Immunex Corporation               ,Attn : Elbert Glad            ,5841 Pervades Drive       ,Fairfax             ,VA    ,22035
199,78,Measured Photo Chemicals             ,318.06,270.67,254.43,9,Photo Chemicals        ,C        ,Chemicals               ,Chemical ,Immunex Corporation               ,Attn : Elbert Glad            ,5841 Pervades Drive       ,Fairfax             ,VA    ,22035
200,79,Siena Plastic Supplies               ,155.03,136.43,132.34,7,Plastic Supplies       ,B        ,Disposable Supplies     ,Supplies ,Black Hills Corporation           ,Attn : Edena Gilbert          ,1618 Greenland Street     ,Tallahassee         ,FL    ,32304
201,79,Siena Plastic Supplies               ,155.03,136.43,132.34,7,Plastic Supplies       ,B        ,Disposable Supplies     ,Supplies ,Black Hills Corporation           ,Attn : Edena Gilbert          ,1618 Greenland Street     ,Tallahassee         ,FL    ,32304
202,80,Temporally Plastic Supplies          ,477.53,408.29,371.54,7,Plastic Supplies       ,B        ,Disposable Supplies     ,Supplies ,Fedders Corporation               ,Attn : Virgil Hubert          ,7844 Carelessly Drive     ,Overlook            ,WA    ,98366
203,80,Temporally Plastic Supplies          ,477.53,408.29,371.54,7,Plastic Supplies       ,B        ,Disposable Supplies     ,Supplies ,Fedders Corporation               ,Attn : Virgil Hubert          ,7844 Carelessly Drive     ,Overlook            ,WA    ,98366
204,81,Palm Polishing Equipment             ,122.39,105.38,103.27,3,Polishing Equipment    ,A        ,Processing Equipment    ,Equipment,Black Hills Corporation           ,Attn : Edena Gilbert          ,1618 Greenland Street     ,Tallahassee         ,FL    ,32304
205,81,Palm Polishing Equipment             ,122.39,105.38,103.27,3,Polishing Equipment    ,A        ,Processing Equipment    ,Equipment,Black Hills Corporation           ,Attn : Edena Gilbert          ,1618 Greenland Street     ,Tallahassee         ,FL    ,32304
206,82,Numerals Covers                      ,102.87,88.98,83.64,13,Covers                 ,D        ,Miscellaneous           ,Misc     ,Sinclair Broadcast Group Inc      ,Attn : Carla Shelby           ,6037 Ecuadorian Street    ,Clinton             ,MI    ,49236
207,82,Numerals Covers                      ,102.87,88.98,83.64,13,Covers                 ,D        ,Miscellaneous           ,Misc     ,Sinclair Broadcast Group Inc      ,Attn : Carla Shelby           ,6037 Ecuadorian Street    ,Clinton             ,MI    ,49236
208,83,Horses Lifts                         ,487.3,402.51,366.28,14,Lifts                  ,D        ,Miscellaneous           ,Misc     ,Saurer Gruppe Holding Ag          ,Attn : Pearce Valdez          ,3727 Elms Drive           ,South Saint Paul    ,MN    ,55077
209,83,Horses Lifts                         ,487.3,402.51,366.28,14,Lifts                  ,D        ,Miscellaneous           ,Misc     ,Saurer Gruppe Holding Ag          ,Attn : Pearce Valdez          ,3727 Elms Drive           ,South Saint Paul    ,MN    ,55077
210,84,Unjust Paper Supplies                ,222.48,182.21,176.74,6,Paper Supplies         ,B        ,Disposable Supplies     ,Supplies ,Afg Industries Inc                ,Attn : Dorothy Polk           ,5377 Cookbook Circle      ,Vero Beach          ,FL    ,32967
211,84,Unjust Paper Supplies                ,222.48,182.21,176.74,6,Paper Supplies         ,B        ,Disposable Supplies     ,Supplies ,Afg Industries Inc                ,Attn : Dorothy Polk           ,5377 Cookbook Circle      ,Vero Beach          ,FL    ,32967
212,85,Disallow Manufacturing Equip         ,165.24,145.91,144.45,2,Manufacturing Equip    ,A        ,Processing Equipment    ,Equipment,Dollar General Corporation        ,Attn : Antoinette Hickey      ,3988 Chanced Avenue       ,S Middleton         ,PA    ,17007
213,85,Disallow Manufacturing Equip         ,165.24,145.91,144.45,2,Manufacturing Equip    ,A        ,Processing Equipment    ,Equipment,Dollar General Corporation        ,Attn : Antoinette Hickey      ,3988 Chanced Avenue       ,S Middleton         ,PA    ,17007
214,86,Soya Cleaning Supplies               ,406.93,345.89,345.89,5,Cleaning Supplies      ,B        ,Disposable Supplies     ,Supplies ,Specialty Teleconstructors Inc    ,Attn : Zylina Cox             ,2161 Chalmers Street      ,Salinas             ,CA    ,93905
215,86,Soya Cleaning Supplies               ,406.93,345.89,345.89,5,Cleaning Supplies      ,B        ,Disposable Supplies     ,Supplies ,Specialty Teleconstructors Inc    ,Attn : Zylina Cox             ,2161 Chalmers Street      ,Salinas             ,CA    ,93905
216,87,Suing Manufacturing Equip            ,482.16,426.71,401.11,2,Manufacturing Equip    ,A        ,Processing Equipment    ,Equipment,First Bancshares Inc Mo           ,Attn : Jensine Lease          ,11885 Aural Turnpike      ,Louisville          ,KY    ,40253
217,87,Suing Manufacturing Equip            ,482.16,426.71,401.11,2,Manufacturing Equip    ,A        ,Processing Equipment    ,Equipment,First Bancshares Inc Mo           ,Attn : Jensine Lease          ,11885 Aural Turnpike      ,Louisville          ,KY    ,40253
218,88,Vestiges Tray Supplies               ,231.45,192.1,186.34,8,Tray Supplies          ,B        ,Disposable Supplies     ,Supplies ,Saurer Gruppe Holding Ag          ,Attn : Pearce Valdez          ,3727 Elms Drive           ,South Saint Paul    ,MN    ,55077
219,88,Vestiges Tray Supplies               ,231.45,192.1,186.34,8,Tray Supplies          ,B        ,Disposable Supplies     ,Supplies ,Saurer Gruppe Holding Ag          ,Attn : Pearce Valdez          ,3727 Elms Drive           ,South Saint Paul    ,MN    ,55077
220,89,Travel Paper Supplies                ,129.85,108.81,103.37,6,Paper Supplies         ,B        ,Disposable Supplies     ,Supplies ,Saurer Gruppe Holding Ag          ,Attn : Pearce Valdez          ,3727 Elms Drive           ,South Saint Paul    ,MN    ,55077
221,89,Travel Paper Supplies                ,129.85,108.81,103.37,6,Paper Supplies         ,B        ,Disposable Supplies     ,Supplies ,Saurer Gruppe Holding Ag          ,Attn : Pearce Valdez          ,3727 Elms Drive           ,South Saint Paul    ,MN    ,55077
222,90,Curiouser Cleaning Supplies          ,419.36,364.42,338.91,5,Cleaning Supplies      ,B        ,Disposable Supplies     ,Supplies ,Dollar General Corporation        ,Attn : Antoinette Hickey      ,3988 Chanced Avenue       ,S Middleton         ,PA    ,17007
223,90,Curiouser Cleaning Supplies          ,419.36,364.42,338.91,5,Cleaning Supplies      ,B        ,Disposable Supplies     ,Supplies ,Dollar General Corporation        ,Attn : Antoinette Hickey      ,3988 Chanced Avenue       ,S Middleton         ,PA    ,17007
224,91,Scribble Plastic Supplies            ,492.4,405.74,397.63,7,Plastic Supplies       ,B        ,Disposable Supplies     ,Supplies ,Specialty Teleconstructors Inc    ,Attn : Zylina Cox             ,2161 Chalmers Street      ,Salinas             ,CA    ,93905
225,91,Scribble Plastic Supplies            ,492.4,405.74,397.63,7,Plastic Supplies       ,B        ,Disposable Supplies     ,Supplies ,Specialty Teleconstructors Inc    ,Attn : Zylina Cox             ,2161 Chalmers Street      ,Salinas             ,CA    ,93905
226,92,Behind Tray Supplies                 ,166.65,138.99,129.26,8,Tray Supplies          ,B        ,Disposable Supplies     ,Supplies ,Afg Industries Inc                ,Attn : Dorothy Polk           ,5377 Cookbook Circle      ,Vero Beach          ,FL    ,32967
227,92,Behind Tray Supplies                 ,166.65,138.99,129.26,8,Tray Supplies          ,B        ,Disposable Supplies     ,Supplies ,Afg Industries Inc                ,Attn : Dorothy Polk           ,5377 Cookbook Circle      ,Vero Beach          ,FL    ,32967
228,93,Bellowing Polishing Equipment        ,502.57,451.31,446.8,3,Polishing Equipment    ,A        ,Processing Equipment    ,Equipment,First Bancshares Inc Mo           ,Attn : Jensine Lease          ,11885 Aural Turnpike      ,Louisville          ,KY    ,40253
229,93,Bellowing Polishing Equipment        ,502.57,451.31,446.8,3,Polishing Equipment    ,A        ,Processing Equipment    ,Equipment,First Bancshares Inc Mo           ,Attn : Jensine Lease          ,11885 Aural Turnpike      ,Louisville          ,KY    ,40253
230,94,Beliefs Freezing Chemicals           ,566.64,483.91,454.88,11,Freezing Chemicals     ,C        ,Chemicals               ,Chemical ,Immunex Corporation               ,Attn : Elbert Glad            ,5841 Pervades Drive       ,Fairfax             ,VA    ,22035
231,94,Beliefs Freezing Chemicals           ,566.64,483.91,454.88,11,Freezing Chemicals     ,C        ,Chemicals               ,Chemical ,Immunex Corporation               ,Attn : Elbert Glad            ,5841 Pervades Drive       ,Fairfax             ,VA    ,22035
232,95,Duplicator Polishing Equipment       ,544.28,465.36,432.78,3,Polishing Equipment    ,A        ,Processing Equipment    ,Equipment,Afg Industries Inc                ,Attn : Dorothy Polk           ,5377 Cookbook Circle      ,Vero Beach          ,FL    ,32967
233,95,Duplicator Polishing Equipment       ,544.28,465.36,432.78,3,Polishing Equipment    ,A        ,Processing Equipment    ,Equipment,Afg Industries Inc                ,Attn : Dorothy Polk           ,5377 Cookbook Circle      ,Vero Beach          ,FL    ,32967
234,96,Drafty Cleaning Supplies             ,107.13,92.67,88.96,5,Cleaning Supplies      ,B        ,Disposable Supplies     ,Supplies ,Black Hills Corporation           ,Attn : Edena Gilbert          ,1618 Greenland Street     ,Tallahassee         ,FL    ,32304
235,96,Drafty Cleaning Supplies             ,107.13,92.67,88.96,5,Cleaning Supplies      ,B        ,Disposable Supplies     ,Supplies ,Black Hills Corporation           ,Attn : Edena Gilbert          ,1618 Greenland Street     ,Tallahassee         ,FL    ,32304
236,97,Stickiest Paper Supplies             ,575.92,502.78,467.59,6,Paper Supplies         ,B        ,Disposable Supplies     ,Supplies ,Black Hills Corporation           ,Attn : Edena Gilbert          ,1618 Greenland Street     ,Tallahassee         ,FL    ,32304
237,97,Stickiest Paper Supplies             ,575.92,502.78,467.59,6,Paper Supplies         ,B        ,Disposable Supplies     ,Supplies ,Black Hills Corporation           ,Attn : Edena Gilbert          ,1618 Greenland Street     ,Tallahassee         ,FL    ,32304
238,98,Barrels Flushing Chemicals           ,135.1,116.59,108.43,10,Flushing Chemicals     ,C        ,Chemicals               ,Chemical ,Specialty Teleconstructors Inc    ,Attn : Zylina Cox             ,2161 Chalmers Street      ,Salinas             ,CA    ,93905
239,98,Barrels Flushing Chemicals           ,135.1,116.59,108.43,10,Flushing Chemicals     ,C        ,Chemicals               ,Chemical ,Specialty Teleconstructors Inc    ,Attn : Zylina Cox             ,2161 Chalmers Street      ,Salinas             ,CA    ,93905
240,99,Richards Freezing Chemicals          ,529.35,475.36,470.61,11,Freezing Chemicals     ,C        ,Chemicals               ,Chemical ,Dollar General Corporation        ,Attn : Antoinette Hickey      ,3988 Chanced Avenue       ,S Middleton         ,PA    ,17007
241,99,Richards Freezing Chemicals          ,529.35,475.36,470.61,11,Freezing Chemicals     ,C        ,Chemicals               ,Chemical ,Dollar General Corporation        ,Attn : Antoinette Hickey      ,3988 Chanced Avenue       ,S Middleton         ,PA    ,17007
242,100,Pervasively Manufacturing Equip      ,374.14,334.86,308.07,2,Manufacturing Equip    ,A        ,Processing Equipment    ,Equipment,American General Ventures Inc     ,Attn : Kimberly Yarborough    ,1616 Goggles Drive        ,Sterling            ,KS    ,67579
243,100,Pervasively Manufacturing Equip      ,374.14,334.86,308.07,2,Manufacturing Equip    ,A        ,Processing Equipment    ,Equipment,American General Ventures Inc     ,Attn : Kimberly Yarborough    ,1616 Goggles Drive        ,Sterling            ,KS    ,67579
244,101,Optima Cleaning Supplies             ,288.41,255.53,242.75,5,Cleaning Supplies      ,B        ,Disposable Supplies     ,Supplies ,American General Ventures Inc     ,Attn : Kimberly Yarborough    ,1616 Goggles Drive        ,Sterling            ,KS    ,67579
245,102,Measured Photo Chemicals             ,318.06,270.67,254.43,9,Photo Chemicals        ,C        ,Chemicals               ,Chemical ,Immunex Corporation               ,Attn : Elbert Glad            ,5841 Pervades Drive       ,Fairfax             ,VA    ,22035
246,103,Whale Lifts                          ,493.4,406.78,385.43,14,Lifts                  ,D        ,Miscellaneous           ,Misc     ,Saurer Gruppe Holding Ag          ,Attn : Pearce Valdez          ,3727 Elms Drive           ,South Saint Paul    ,MN    ,55077
247,104,LCARS Covers                         ,289.41,231.42,211.76,13,Covers                 ,D        ,Miscellaneous           ,Misc     ,Fedders Corporation               ,Attn : Virgil Hubert          ,7844 Carelessly Drive     ,Overlook            ,WA    ,98366
248,105,Just Paper Supplies                  ,278.59,201.34,192.67,6,Paper Supplies         ,B        ,Disposable Supplies     ,Supplies ,Afg Industries Inc                ,Attn : Dorothy Polk           ,5377 Cookbook Circle      ,Vero Beach          ,FL    ,32967
249,106,Escape Manufacturing Equip           ,584.38,523.6,507.89,2,Manufacturing Equip    ,A        ,Processing Equipment    ,Equipment,Black Hills Corporation           ,Attn : Edena Gilbert          ,1618 Greenland Street     ,Tallahassee         ,FL    ,32304
250,200,Curiouser Cleaning Supplies          ,419.36,364.42,338.91,5,Cleaning Supplies      ,B        ,Disposable Supplies     ,Supplies ,Dollar General Corporation        ,Attn : Antoinette Hickey      ,3988 Chanced Avenue       ,S Middleton         ,PA    ,17007
